[{"OBJECT_NAME":"STARLINK-31594","OBJECT_ID":"2024-057N","EPOCH":"2026-03-09T09:30:58.688640","MEAN_MOTION":15.2760153,"ECCENTRICITY":0.00032858,"INCLINATION":43.0042,"RA_OF_ASC_NODE":200.0261,"ARG_OF_PERICENTER":297.6612,"MEAN_ANOMALY":62.3906,"EPHEMERIS_TYPE":0,"CLASSIFICATION_TYPE":"U","NORAD_CAT_ID":59332,"ELEMENT_SET_NO":999,"REV_AT_EPOCH":10966,"BSTAR":-0.00024083857,"MEAN_MOTION_DOT":-6.89e-5,"MEAN_MOTION_DDOT":0},{"OBJECT_NAME":"OBJECT D","OBJECT_ID":"2024-173D","EPOCH":"2026-03-09T23:30:29.956896","MEAN_MOTION":15.27005733,"ECCENTRICITY":0.00090093,"INCLINATION":97.3606,"RA_OF_ASC_NODE":149.3901,"ARG_OF_PERICENTER":241.6081,"MEAN_ANOMALY":118.425,"EPHEMERIS_TYPE":0,"CLASSIFICATION_TYPE":"U","NORAD_CAT_ID":61230,"ELEMENT_SET_NO":999,"REV_AT_EPOCH":8130,"BSTAR":0.00072064626,"MEAN_MOTION_DOT":0.00019078,"MEAN_MOTION_DDOT":0}]
